<?xml version="1.0" encoding="UTF-8"?>
<ndm xmlns:xsi="http://www.w3.org/2001/XMLSchema-instance" xsi:noNamespaceSchemaLocation="https://sanaregistry.org/r/ndmxml_unqualified/ndmxml-2.0.0-master-2.0.xsd">
<omm id="CCSDS_OMM_VERS" version="2.0">
<header><CREATION_DATE/><ORIGINATOR/></header><body><segment><metadata><OBJECT_NAME>ORBCOMM FM33</OBJECT_NAME><OBJECT_ID>1999-065D</OBJECT_ID><CENTER_NAME>EARTH</CENTER_NAME><REF_FRAME>TEME</REF_FRAME><TIME_SYSTEM>UTC</TIME_SYSTEM><MEAN_ELEMENT_THEORY>SGP4</MEAN_ELEMENT_THEORY></metadata><data><meanElements><EPOCH>2024-10-15T20:34:36.821568</EPOCH><MEAN_MOTION>14.38615174</MEAN_MOTION><ECCENTRICITY>.000908</ECCENTRICITY><INCLINATION>45.0281</INCLINATION><RA_OF_ASC_NODE>79.5026</RA_OF_ASC_NODE><ARG_OF_PERICENTER>263.2217</ARG_OF_PERICENTER><MEAN_ANOMALY>96.7599</MEAN_ANOMALY></meanElements><tleParameters><EPHEMERIS_TYPE>0</EPHEMERIS_TYPE><CLASSIFICATION_TYPE>U</CLASSIFICATION_TYPE><NORAD_CAT_ID>25983</NORAD_CAT_ID><ELEMENT_SET_NO>999</ELEMENT_SET_NO><REV_AT_EPOCH>30086</REV_AT_EPOCH><BSTAR>.1201E-2</BSTAR><MEAN_MOTION_DOT>.3573E-4</MEAN_MOTION_DOT><MEAN_MOTION_DDOT>0</MEAN_MOTION_DDOT></tleParameters></data></segment></body></omm>
<omm id="CCSDS_OMM_VERS" version="2.0">
<header><CREATION_DATE/><ORIGINATOR/></header><body><segment><metadata><OBJECT_NAME>ORBCOMM FM36</OBJECT_NAME><OBJECT_ID>1999-065E</OBJECT_ID><CENTER_NAME>EARTH</CENTER_NAME><REF_FRAME>TEME</REF_FRAME><TIME_SYSTEM>UTC</TIME_SYSTEM><MEAN_ELEMENT_THEORY>SGP4</MEAN_ELEMENT_THEORY></metadata><data><meanElements><EPOCH>2024-10-15T20:18:34.591680</EPOCH><MEAN_MOTION>14.36653343</MEAN_MOTION><ECCENTRICITY>.0003339</ECCENTRICITY><INCLINATION>45.0382</INCLINATION><RA_OF_ASC_NODE>167.7054</RA_OF_ASC_NODE><ARG_OF_PERICENTER>141.6898</ARG_OF_PERICENTER><MEAN_ANOMALY>218.4188</MEAN_ANOMALY></meanElements><tleParameters><EPHEMERIS_TYPE>0</EPHEMERIS_TYPE><CLASSIFICATION_TYPE>U</CLASSIFICATION_TYPE><NORAD_CAT_ID>25984</NORAD_CAT_ID><ELEMENT_SET_NO>999</ELEMENT_SET_NO><REV_AT_EPOCH>29985</REV_AT_EPOCH><BSTAR>.11405E-2</BSTAR><MEAN_MOTION_DOT>.3248E-4</MEAN_MOTION_DOT><MEAN_MOTION_DDOT>0</MEAN_MOTION_DDOT></tleParameters></data></segment></body></omm>
<omm id="CCSDS_OMM_VERS" version="2.0">
<header><CREATION_DATE/><ORIGINATOR/></header><body><segment><metadata><OBJECT_NAME>ORBCOMM FM35</OBJECT_NAME><OBJECT_ID>1999-065F</OBJECT_ID><CENTER_NAME>EARTH</CENTER_NAME><REF_FRAME>TEME</REF_FRAME><TIME_SYSTEM>UTC</TIME_SYSTEM><MEAN_ELEMENT_THEORY>SGP4</MEAN_ELEMENT_THEORY></metadata><data><meanElements><EPOCH>2024-10-16T15:26:18.810528</EPOCH><MEAN_MOTION>14.35941753</MEAN_MOTION><ECCENTRICITY>.0002973</ECCENTRICITY><INCLINATION>45.0384</INCLINATION><RA_OF_ASC_NODE>167.2449</RA_OF_ASC_NODE><ARG_OF_PERICENTER>262.8196</ARG_OF_PERICENTER><MEAN_ANOMALY>97.2314</MEAN_ANOMALY></meanElements><tleParameters><EPHEMERIS_TYPE>0</EPHEMERIS_TYPE><CLASSIFICATION_TYPE>U</CLASSIFICATION_TYPE><NORAD_CAT_ID>25985</NORAD_CAT_ID><ELEMENT_SET_NO>999</ELEMENT_SET_NO><REV_AT_EPOCH>29995</REV_AT_EPOCH><BSTAR>.10726E-2</BSTAR><MEAN_MOTION_DOT>.3001E-4</MEAN_MOTION_DOT><MEAN_MOTION_DDOT>0</MEAN_MOTION_DDOT></tleParameters></data></segment></body></omm>
<omm id="CCSDS_OMM_VERS" version="2.0">
<header><CREATION_DATE/><ORIGINATOR/></header><body><segment><metadata><OBJECT_NAME>ORBCOMM FM34</OBJECT_NAME><OBJECT_ID>1999-065G</OBJECT_ID><CENTER_NAME>EARTH</CENTER_NAME><REF_FRAME>TEME</REF_FRAME><TIME_SYSTEM>UTC</TIME_SYSTEM><MEAN_ELEMENT_THEORY>SGP4</MEAN_ELEMENT_THEORY></metadata><data><meanElements><EPOCH>2024-10-16T14:46:12.914400</EPOCH><MEAN_MOTION>14.35960470</MEAN_MOTION><ECCENTRICITY>.0003181</ECCENTRICITY><INCLINATION>45.0377</INCLINATION><RA_OF_ASC_NODE>167.9235</RA_OF_ASC_NODE><ARG_OF_PERICENTER>198.7288</ARG_OF_PERICENTER><MEAN_ANOMALY>161.3444</MEAN_ANOMALY></meanElements><tleParameters><EPHEMERIS_TYPE>0</EPHEMERIS_TYPE><CLASSIFICATION_TYPE>U</CLASSIFICATION_TYPE><NORAD_CAT_ID>25986</NORAD_CAT_ID><ELEMENT_SET_NO>999</ELEMENT_SET_NO><REV_AT_EPOCH>29991</REV_AT_EPOCH><BSTAR>.11388E-2</BSTAR><MEAN_MOTION_DOT>.3196E-4</MEAN_MOTION_DOT><MEAN_MOTION_DDOT>0</MEAN_MOTION_DDOT></tleParameters></data></segment></body></omm>
<omm id="CCSDS_OMM_VERS" version="2.0">
<header><CREATION_DATE/><ORIGINATOR/></header><body><segment><metadata><OBJECT_NAME>ORBCOMM FM38</OBJECT_NAME><OBJECT_ID>2008-031A</OBJECT_ID><CENTER_NAME>EARTH</CENTER_NAME><REF_FRAME>TEME</REF_FRAME><TIME_SYSTEM>UTC</TIME_SYSTEM><MEAN_ELEMENT_THEORY>SGP4</MEAN_ELEMENT_THEORY></metadata><data><meanElements><EPOCH>2024-10-15T19:26:10.673664</EPOCH><MEAN_MOTION>14.79086827</MEAN_MOTION><ECCENTRICITY>.0004398</ECCENTRICITY><INCLINATION>48.4411</INCLINATION><RA_OF_ASC_NODE>38.1218</RA_OF_ASC_NODE><ARG_OF_PERICENTER>62.7224</ARG_OF_PERICENTER><MEAN_ANOMALY>297.4138</MEAN_ANOMALY></meanElements><tleParameters><EPHEMERIS_TYPE>0</EPHEMERIS_TYPE><CLASSIFICATION_TYPE>U</CLASSIFICATION_TYPE><NORAD_CAT_ID>33060</NORAD_CAT_ID><ELEMENT_SET_NO>999</ELEMENT_SET_NO><REV_AT_EPOCH>87854</REV_AT_EPOCH><BSTAR>.78602E-3</BSTAR><MEAN_MOTION_DOT>.5676E-4</MEAN_MOTION_DOT><MEAN_MOTION_DDOT>0</MEAN_MOTION_DDOT></tleParameters></data></segment></body></omm>
<omm id="CCSDS_OMM_VERS" version="2.0">
<header><CREATION_DATE/><ORIGINATOR/></header><body><segment><metadata><OBJECT_NAME>ORBCOMM FM41</OBJECT_NAME><OBJECT_ID>2008-031B</OBJECT_ID><CENTER_NAME>EARTH</CENTER_NAME><REF_FRAME>TEME</REF_FRAME><TIME_SYSTEM>UTC</TIME_SYSTEM><MEAN_ELEMENT_THEORY>SGP4</MEAN_ELEMENT_THEORY></metadata><data><meanElements><EPOCH>2024-10-16T08:51:59.190048</EPOCH><MEAN_MOTION>14.78774814</MEAN_MOTION><ECCENTRICITY>.0003732</ECCENTRICITY><INCLINATION>48.4446</INCLINATION><RA_OF_ASC_NODE>42.4729</RA_OF_ASC_NODE><ARG_OF_PERICENTER>47.6236</ARG_OF_PERICENTER><MEAN_ANOMALY>9.4452</MEAN_ANOMALY></meanElements><tleParameters><EPHEMERIS_TYPE>0</EPHEMERIS_TYPE><CLASSIFICATION_TYPE>U</CLASSIFICATION_TYPE><NORAD_CAT_ID>33061</NORAD_CAT_ID><ELEMENT_SET_NO>999</ELEMENT_SET_NO><REV_AT_EPOCH>87856</REV_AT_EPOCH><BSTAR>.79078E-3</BSTAR><MEAN_MOTION_DOT>.5669E-4</MEAN_MOTION_DOT><MEAN_MOTION_DDOT>0</MEAN_MOTION_DDOT></tleParameters></data></segment></body></omm>
<omm id="CCSDS_OMM_VERS" version="2.0">
<header><CREATION_DATE/><ORIGINATOR/></header><body><segment><metadata><OBJECT_NAME>ORBCOMM FM29</OBJECT_NAME><OBJECT_ID>2008-031C</OBJECT_ID><CENTER_NAME>EARTH</CENTER_NAME><REF_FRAME>TEME</REF_FRAME><TIME_SYSTEM>UTC</TIME_SYSTEM><MEAN_ELEMENT_THEORY>SGP4</MEAN_ELEMENT_THEORY></metadata><data><meanElements><EPOCH>2024-10-16T02:43:47.014176</EPOCH><MEAN_MOTION>14.78760213</MEAN_MOTION><ECCENTRICITY>.0005431</ECCENTRICITY><INCLINATION>48.4396</INCLINATION><RA_OF_ASC_NODE>51.7047</RA_OF_ASC_NODE><ARG_OF_PERICENTER>48.8205</ARG_OF_PERICENTER><MEAN_ANOMALY>122.0195</MEAN_ANOMALY></meanElements><tleParameters><EPHEMERIS_TYPE>0</EPHEMERIS_TYPE><CLASSIFICATION_TYPE>U</CLASSIFICATION_TYPE><NORAD_CAT_ID>33062</NORAD_CAT_ID><ELEMENT_SET_NO>999</ELEMENT_SET_NO><REV_AT_EPOCH>87838</REV_AT_EPOCH><BSTAR>.78979E-3</BSTAR><MEAN_MOTION_DOT>.566E-4</MEAN_MOTION_DOT><MEAN_MOTION_DDOT>0</MEAN_MOTION_DDOT></tleParameters></data></segment></body></omm>
<omm id="CCSDS_OMM_VERS" version="2.0">
<header><CREATION_DATE/><ORIGINATOR/></header><body><segment><metadata><OBJECT_NAME>ORBCOMM FM39</OBJECT_NAME><OBJECT_ID>2008-031D</OBJECT_ID><CENTER_NAME>EARTH</CENTER_NAME><REF_FRAME>TEME</REF_FRAME><TIME_SYSTEM>UTC</TIME_SYSTEM><MEAN_ELEMENT_THEORY>SGP4</MEAN_ELEMENT_THEORY></metadata><data><meanElements><EPOCH>2024-10-16T10:24:07.856064</EPOCH><MEAN_MOTION>14.77581991</MEAN_MOTION><ECCENTRICITY>.000655</ECCENTRICITY><INCLINATION>48.4398</INCLINATION><RA_OF_ASC_NODE>72.0009</RA_OF_ASC_NODE><ARG_OF_PERICENTER>24.5310</ARG_OF_PERICENTER><MEAN_ANOMALY>335.5915</MEAN_ANOMALY></meanElements><tleParameters><EPHEMERIS_TYPE>0</EPHEMERIS_TYPE><CLASSIFICATION_TYPE>U</CLASSIFICATION_TYPE><NORAD_CAT_ID>33063</NORAD_CAT_ID><ELEMENT_SET_NO>999</ELEMENT_SET_NO><REV_AT_EPOCH>87814</REV_AT_EPOCH><BSTAR>.83589E-3</BSTAR><MEAN_MOTION_DOT>.5834E-4</MEAN_MOTION_DOT><MEAN_MOTION_DDOT>0</MEAN_MOTION_DDOT></tleParameters></data></segment></body></omm>

</ndm>
