ORBCOMM FM33            
1 25983U 99065D   24289.85737062  .00003573  00000+0  12010-2 0  9992
2 25983  45.0281  79.5026 0009080 263.2217  96.7599 14.38615174300860
ORBCOMM FM36            
1 25984U 99065E   24289.84623370  .00003248  00000+0  11405-2 0  9994
2 25984  45.0382 167.7054 0003339 141.6898 218.4188 14.36653343299850
ORBCOMM FM35            
1 25985U 99065F   24290.64327327  .00003001  00000+0  10726-2 0  9990
2 25985  45.0384 167.2449 0002973 262.8196  97.2314 14.35941753299955
ORBCOMM FM34            
1 25986U 99065G   24290.61542725  .00003196  00000+0  11388-2 0  9999
2 25986  45.0377 167.9235 0003181 198.7288 161.3444 14.35960470299919
ORBCOMM FM38            
1 33060U 08031A   24289.80984576  .00005676  00000+0  78602-3 0  9995
2 33060  48.4411  38.1218 0004398  62.7224 297.4138 14.79086827878544
ORBCOMM FM41            
1 33061U 08031B   24290.36943507  .00005669  00000+0  79078-3 0  9998
2 33061  48.4446  42.4729 0003732  47.6236   9.4452 14.78774814878565
ORBCOMM FM29            
1 33062U 08031C   24290.11373859  .00005660  00000+0  78979-3 0  9999
2 33062  48.4396  51.7047 0005431  48.8205 122.0195 14.78760213878387
ORBCOMM FM39            
1 33063U 08031D   24290.43342426  .00005834  00000+0  83589-3 0  9997
2 33063  48.4398  72.0009 0006550  24.5310 335.5915 14.77581991878143
